ONEWEB-0137             
1 47283U 20100AB  26119.20495382  .00000293  00000+0  77865-3 0  9998
2 47283  87.8999   0.3914 0001696  84.9860 275.1462 13.12443044258143
ONEWEB-0138             
1 47284U 20100AC  26119.18294952  .00000255  00000+0  67223-3 0  9991
2 47284  87.8995   0.4031 0001719  72.9966 287.1351 13.12443897258226
ONEWEB-0139             
1 47285U 20100AD  26119.14749742 -.00000277  00000+0 -80473-3 0  9998
2 47285  87.8993   0.3969 0001738  79.8529 280.2796 13.12441603258293
ONEWEB-0140             
1 47286U 20100AE  26119.17784449  .00000051  00000+0  10522-3 0  9991
2 47286  87.8996   0.3807 0001931  79.5362 280.5985 13.12444960258264
ONEWEB-0141             
1 47287U 20100AF  26119.22344808 -.00000247  00000+0 -72310-3 0  9991
2 47287  87.8995   0.3772 0001556  90.0518 270.0789 13.12442714258259
ONEWEB-0142             
1 47288U 20100AG  26119.21186904  .00000100  00000+0  24404-3 0  9999
2 47288  87.8991   0.4035 0001337  81.0176 279.1104 13.12442288258242
ONEWEB-0143             
1 47289U 20100AH  26119.22189204 -.00000185  00000+0 -54986-3 0  9990
2 47289  87.8994   0.3981 0001713  81.2720 278.8602 13.12442744258224
ONEWEB-0144             
1 47290U 20100AJ  26119.19308681  .00000418  00000+0  11273-2 0  9998
2 47290  87.9000   0.3757 0001503  71.9798 288.1494 13.12442888258147
ONEWEB-0145             
1 47291U 20100AK  26119.16429010 -.00000306  00000+0 -88610-3 0  9994
2 47291  87.8989   0.4147 0001680  78.8541 281.2776 13.12444006258337
ONEWEB-0146             
1 47292U 20100AL  26119.16089929 -.00000350  00000+0 -10069-2 0  9997
2 47292  87.8994   0.4034 0002078  84.5545 275.5821 13.12444080258248
ONEWEB-0147             
1 47293U 20100AM  26119.20325824  .00000424  00000+0  11419-2 0  9990
2 47293  87.8997   0.3761 0001833  76.2152 283.9180 13.12442243258147
ONEWEB-0115             
1 48042U 21025A   26119.11735353  .00000337  00000+0  88755-3 0  9993
2 48042  87.8968 329.9971 0001798  85.9360 274.1975 13.13469451247153
ONEWEB-0152             
1 48043U 21025B   26119.28324867  .00000091  00000+0  21549-3 0  9991
2 48043  87.8960 329.9623 0001868  85.9907 274.1435 13.13469877247136
ONEWEB-0153             
1 48044U 21025C   26119.10888515  .00000347  00000+0  91473-3 0  9995
2 48044  87.8958 330.0013 0001646  85.3896 274.7421 13.13470475247109
ONEWEB-0154             
1 48045U 21025D   26119.10548912  .00000322  00000+0  84732-3 0  9993
2 48045  87.8957 329.9995 0001781  83.1048 277.0284 13.13469733247063
ONEWEB-0116             
1 48046U 21025E   26119.14443171 -.00000301  00000+0 -85856-3 0  9996
2 48046  87.8970 329.9839 0001887  86.2636 273.8709 13.13469745247216
