[{"OBJECT_NAME":"ONEWEB-0137","OBJECT_ID":"2020-100AB","EPOCH":"2026-04-29T04:55:08.010048","MEAN_MOTION":13.12443044,"ECCENTRICITY":0.0001696,"INCLINATION":87.8999,"RA_OF_ASC_NODE":0.3914,"ARG_OF_PERICENTER":84.986,"MEAN_ANOMALY":275.1462,"EPHEMERIS_TYPE":0,"CLASSIFICATION_TYPE":"U","NORAD_CAT_ID":47283,"ELEMENT_SET_NO":999,"REV_AT_EPOCH":25814,"BSTAR":0.00077865,"MEAN_MOTION_DOT":2.93e-06,"MEAN_MOTION_DDOT":0.0},{"OBJECT_NAME":"ONEWEB-0138","OBJECT_ID":"2020-100AC","EPOCH":"2026-04-29T04:23:26.838528","MEAN_MOTION":13.12443897,"ECCENTRICITY":0.0001719,"INCLINATION":87.8995,"RA_OF_ASC_NODE":0.4031,"ARG_OF_PERICENTER":72.9966,"MEAN_ANOMALY":287.1351,"EPHEMERIS_TYPE":0,"CLASSIFICATION_TYPE":"U","NORAD_CAT_ID":47284,"ELEMENT_SET_NO":999,"REV_AT_EPOCH":25822,"BSTAR":0.00067223,"MEAN_MOTION_DOT":2.55e-06,"MEAN_MOTION_DDOT":0.0},{"OBJECT_NAME":"ONEWEB-0139","OBJECT_ID":"2020-100AD","EPOCH":"2026-04-29T03:32:23.777088","MEAN_MOTION":13.12441603,"ECCENTRICITY":0.0001738,"INCLINATION":87.8993,"RA_OF_ASC_NODE":0.3969,"ARG_OF_PERICENTER":79.8529,"MEAN_ANOMALY":280.2796,"EPHEMERIS_TYPE":0,"CLASSIFICATION_TYPE":"U","NORAD_CAT_ID":47285,"ELEMENT_SET_NO":999,"REV_AT_EPOCH":25829,"BSTAR":-0.0008047299999999999,"MEAN_MOTION_DOT":-2.77e-06,"MEAN_MOTION_DDOT":0.0},{"OBJECT_NAME":"ONEWEB-0140","OBJECT_ID":"2020-100AE","EPOCH":"2026-04-29T04:16:05.763936","MEAN_MOTION":13.1244496,"ECCENTRICITY":0.0001931,"INCLINATION":87.8996,"RA_OF_ASC_NODE":0.3807,"ARG_OF_PERICENTER":79.5362,"MEAN_ANOMALY":280.5985,"EPHEMERIS_TYPE":0,"CLASSIFICATION_TYPE":"U","NORAD_CAT_ID":47286,"ELEMENT_SET_NO":999,"REV_AT_EPOCH":25826,"BSTAR":0.00010522,"MEAN_MOTION_DOT":5.1e-07,"MEAN_MOTION_DDOT":0.0},{"OBJECT_NAME":"ONEWEB-0141","OBJECT_ID":"2020-100AF","EPOCH":"2026-04-29T05:21:45.914112","MEAN_MOTION":13.12442714,"ECCENTRICITY":0.0001556,"INCLINATION":87.8995,"RA_OF_ASC_NODE":0.3772,"ARG_OF_PERICENTER":90.0518,"MEAN_ANOMALY":270.0789,"EPHEMERIS_TYPE":0,"CLASSIFICATION_TYPE":"U","NORAD_CAT_ID":47287,"ELEMENT_SET_NO":999,"REV_AT_EPOCH":25825,"BSTAR":-0.0007231,"MEAN_MOTION_DOT":-2.47e-06,"MEAN_MOTION_DDOT":0.0},{"OBJECT_NAME":"ONEWEB-0142","OBJECT_ID":"2020-100AG","EPOCH":"2026-04-29T05:05:05.485056","MEAN_MOTION":13.12442288,"ECCENTRICITY":0.0001337,"INCLINATION":87.8991,"RA_OF_ASC_NODE":0.4035,"ARG_OF_PERICENTER":81.0176,"MEAN_ANOMALY":279.1104,"EPHEMERIS_TYPE":0,"CLASSIFICATION_TYPE":"U","NORAD_CAT_ID":47288,"ELEMENT_SET_NO":999,"REV_AT_EPOCH":25824,"BSTAR":0.00024404,"MEAN_MOTION_DOT":1e-06,"MEAN_MOTION_DDOT":0.0},{"OBJECT_NAME":"ONEWEB-0143","OBJECT_ID":"2020-100AH","EPOCH":"2026-04-29T05:19:31.472256","MEAN_MOTION":13.12442744,"ECCENTRICITY":0.0001713,"INCLINATION":87.8994,"RA_OF_ASC_NODE":0.3981,"ARG_OF_PERICENTER":81.272,"MEAN_ANOMALY":278.8602,"EPHEMERIS_TYPE":0,"CLASSIFICATION_TYPE":"U","NORAD_CAT_ID":47289,"ELEMENT_SET_NO":999,"REV_AT_EPOCH":25822,"BSTAR":-0.00054986,"MEAN_MOTION_DOT":-1.85e-06,"MEAN_MOTION_DDOT":0.0},{"OBJECT_NAME":"ONEWEB-0144","OBJECT_ID":"2020-100AJ","EPOCH":"2026-04-29T04:38:02.700384","MEAN_MOTION":13.12442888,"ECCENTRICITY":0.0001503,"INCLINATION":87.9,"RA_OF_ASC_NODE":0.3757,"ARG_OF_PERICENTER":71.9798,"MEAN_ANOMALY":288.1494,"EPHEMERIS_TYPE":0,"CLASSIFICATION_TYPE":"U","NORAD_CAT_ID":47290,"ELEMENT_SET_NO":999,"REV_AT_EPOCH":25814,"BSTAR":0.0011273,"MEAN_MOTION_DOT":4.18e-06,"MEAN_MOTION_DDOT":0.0},{"OBJECT_NAME":"ONEWEB-0145","OBJECT_ID":"2020-100AK","EPOCH":"2026-04-29T03:56:34.664640","MEAN_MOTION":13.12444006,"ECCENTRICITY":0.000168,"INCLINATION":87.8989,"RA_OF_ASC_NODE":0.4147,"ARG_OF_PERICENTER":78.8541,"MEAN_ANOMALY":281.2776,"EPHEMERIS_TYPE":0,"CLASSIFICATION_TYPE":"U","NORAD_CAT_ID":47291,"ELEMENT_SET_NO":999,"REV_AT_EPOCH":25833,"BSTAR":-0.0008861,"MEAN_MOTION_DOT":-3.06e-06,"MEAN_MOTION_DDOT":0.0},{"OBJECT_NAME":"ONEWEB-0146","OBJECT_ID":"2020-100AL","EPOCH":"2026-04-29T03:51:41.698656","MEAN_MOTION":13.1244408,"ECCENTRICITY":0.0002078,"INCLINATION":87.8994,"RA_OF_ASC_NODE":0.4034,"ARG_OF_PERICENTER":84.5545,"MEAN_ANOMALY":275.5821,"EPHEMERIS_TYPE":0,"CLASSIFICATION_TYPE":"U","NORAD_CAT_ID":47292,"ELEMENT_SET_NO":999,"REV_AT_EPOCH":25824,"BSTAR":-0.0010069,"MEAN_MOTION_DOT":-3.5e-06,"MEAN_MOTION_DDOT":0.0},{"OBJECT_NAME":"ONEWEB-0147","OBJECT_ID":"2020-100AM","EPOCH":"2026-04-29T04:52:41.511936","MEAN_MOTION":13.12442243,"ECCENTRICITY":0.0001833,"INCLINATION":87.8997,"RA_OF_ASC_NODE":0.3761,"ARG_OF_PERICENTER":76.2152,"MEAN_ANOMALY":283.918,"EPHEMERIS_TYPE":0,"CLASSIFICATION_TYPE":"U","NORAD_CAT_ID":47293,"ELEMENT_SET_NO":999,"REV_AT_EPOCH":25814,"BSTAR":0.0011419,"MEAN_MOTION_DOT":4.24e-06,"MEAN_MOTION_DDOT":0.0},{"OBJECT_NAME":"ONEWEB-0115","OBJECT_ID":"2021-025A","EPOCH":"2026-04-29T02:48:59.344992","MEAN_MOTION":13.13469451,"ECCENTRICITY":0.0001798,"INCLINATION":87.8968,"RA_OF_ASC_NODE":329.9971,"ARG_OF_PERICENTER":85.936,"MEAN_ANOMALY":274.1975,"EPHEMERIS_TYPE":0,"CLASSIFICATION_TYPE":"U","NORAD_CAT_ID":48042,"ELEMENT_SET_NO":999,"REV_AT_EPOCH":24715,"BSTAR":0.00088755,"MEAN_MOTION_DOT":3.37e-06,"MEAN_MOTION_DDOT":0.0},{"OBJECT_NAME":"ONEWEB-0152","OBJECT_ID":"2021-025B","EPOCH":"2026-04-29T06:47:52.685088","MEAN_MOTION":13.13469877,"ECCENTRICITY":0.0001868,"INCLINATION":87.896,"RA_OF_ASC_NODE":329.9623,"ARG_OF_PERICENTER":85.9907,"MEAN_ANOMALY":274.1435,"EPHEMERIS_TYPE":0,"CLASSIFICATION_TYPE":"U","NORAD_CAT_ID":48043,"ELEMENT_SET_NO":999,"REV_AT_EPOCH":24713,"BSTAR":0.00021548999999999998,"MEAN_MOTION_DOT":9.1e-07,"MEAN_MOTION_DDOT":0.0},{"OBJECT_NAME":"ONEWEB-0153","OBJECT_ID":"2021-025C","EPOCH":"2026-04-29T02:36:47.676960","MEAN_MOTION":13.13470475,"ECCENTRICITY":0.0001646,"INCLINATION":87.8958,"RA_OF_ASC_NODE":330.0013,"ARG_OF_PERICENTER":85.3896,"MEAN_ANOMALY":274.7421,"EPHEMERIS_TYPE":0,"CLASSIFICATION_TYPE":"U","NORAD_CAT_ID":48044,"ELEMENT_SET_NO":999,"REV_AT_EPOCH":24710,"BSTAR":0.0009147300000000001,"MEAN_MOTION_DOT":3.47e-06,"MEAN_MOTION_DDOT":0.0},{"OBJECT_NAME":"ONEWEB-0154","OBJECT_ID":"2021-025D","EPOCH":"2026-04-29T02:31:54.259968","MEAN_MOTION":13.13469733,"ECCENTRICITY":0.0001781,"INCLINATION":87.8957,"RA_OF_ASC_NODE":329.9995,"ARG_OF_PERICENTER":83.1048,"MEAN_ANOMALY":277.0284,"EPHEMERIS_TYPE":0,"CLASSIFICATION_TYPE":"U","NORAD_CAT_ID":48045,"ELEMENT_SET_NO":999,"REV_AT_EPOCH":24706,"BSTAR":0.0008473199999999999,"MEAN_MOTION_DOT":3.22e-06,"MEAN_MOTION_DDOT":0.0},{"OBJECT_NAME":"ONEWEB-0116","OBJECT_ID":"2021-025E","EPOCH":"2026-04-29T03:27:58.899744","MEAN_MOTION":13.13469745,"ECCENTRICITY":0.0001887,"INCLINATION":87.897,"RA_OF_ASC_NODE":329.9839,"ARG_OF_PERICENTER":86.2636,"MEAN_ANOMALY":273.8709,"EPHEMERIS_TYPE":0,"CLASSIFICATION_TYPE":"U","NORAD_CAT_ID":48046,"ELEMENT_SET_NO":999,"REV_AT_EPOCH":24721,"BSTAR":-0.00085856,"MEAN_MOTION_DOT":-3.01e-06,"MEAN_MOTION_DDOT":0.0}]